[{"OBJECT_NAME":"KINEIS-3C","OBJECT_ID":"2024-172A","EPOCH":"2026-03-09T20:22:22.104480","MEAN_MOTION":14.72318845,"ECCENTRICITY":0.00034983,"INCLINATION":98.0288,"RA_OF_ASC_NODE":159.8485,"ARG_OF_PERICENTER":99.6401,"MEAN_ANOMALY":260.5202,"EPHEMERIS_TYPE":0,"CLASSIFICATION_TYPE":"U","NORAD_CAT_ID":61220,"ELEMENT_SET_NO":999,"REV_AT_EPOCH":7845,"BSTAR":0.00048160166,"MEAN_MOTION_DOT":2.996e-5,"MEAN_MOTION_DDOT":0},{"OBJECT_NAME":"SNAP 1","OBJECT_ID":"2000-033C","EPOCH":"2026-03-09T22:13:07.742784","MEAN_MOTION":14.74651911,"ECCENTRICITY":0.00088213,"INCLINATION":97.7517,"RA_OF_ASC_NODE":59.82,"ARG_OF_PERICENTER":221.2026,"MEAN_ANOMALY":138.8518,"EPHEMERIS_TYPE":0,"CLASSIFICATION_TYPE":"U","NORAD_CAT_ID":26386,"ELEMENT_SET_NO":999,"REV_AT_EPOCH":63382,"BSTAR":0.00028084377,"MEAN_MOTION_DOT":1.827e-5,"MEAN_MOTION_DDOT":0}]
